ONEWEB-0461             
1 51649U 22012AD  24233.72388674  .00000052  00000+0  10080-3 0  9999
2 51649  87.9178 138.3936 0001948  74.3066 285.8280 13.17649778127543
ONEWEB-0463             
1 51650U 22012AE  24233.78205154  .00000013  00000+0 -29036-6 0  9990
2 51650  87.9182 138.4317 0002008  73.5926 286.5426 13.17646962127348
ONEWEB-0464             
1 51651U 22012AF  24233.34826210  .00000657  00000+0  18468-2 0  9991
2 51651  87.8990 168.7380 0001596  80.1607 279.9700 13.10374574122124
ONEWEB-0468             
1 51652U 22012AG  24233.27853322  .00000745  00000+0  20978-2 0  9995
2 51652  87.8990 168.7443 0001939  75.7572 284.3771 13.10373899122090
ONEWEB-0473             
1 51653U 22012AH  24233.72172998  .00000282  00000+0  77183-3 0  9996
2 51653  87.8995 168.6601 0001926  73.1812 286.9526 13.10377544123454
ONEWEB-0474             
1 51654U 22012AJ  24233.33163706 -.00000012  00000+0 -69879-4 0  9998
2 51654  87.8985 168.7283 0001776  72.4246 287.7075 13.10378059122096
ONEWEB-0475             
1 51655U 22012AK  24233.79335732 -.00000023  00000+0 -91212-4 0  9997
2 51655  87.9183 138.4086 0001626  67.1085 293.0218 13.17647536127358
ONEWEB-0490             
1 54113U 22138A   24233.61477334 -.00000018  00000+0 -76399-4 0  9997
2 54113  87.9093  77.3766 0001580  86.6113 273.5201 13.19724583 89041
